[{"OBJECT_NAME":"TK-2","OBJECT_ID":"2022-031A","EPOCH":"2026-03-09T22:51:17.143200","MEAN_MOTION":15.02943491,"ECCENTRICITY":0.00164117,"INCLINATION":97.8366,"RA_OF_ASC_NODE":263.9365,"ARG_OF_PERICENTER":100.3205,"MEAN_ANOMALY":259.9871,"EPHEMERIS_TYPE":0,"CLASSIFICATION_TYPE":"U","NORAD_CAT_ID":52150,"ELEMENT_SET_NO":999,"REV_AT_EPOCH":21555,"BSTAR":0.00040164474,"MEAN_MOTION_DOT":5.349e-5,"MEAN_MOTION_DDOT":0},{"OBJECT_NAME":"STARLINK-5807","OBJECT_ID":"2023-028BC","EPOCH":"2026-03-09T17:57:40.405248","MEAN_MOTION":14.98325973,"ECCENTRICITY":0.00030261,"INCLINATION":70.0005,"RA_OF_ASC_NODE":204.3602,"ARG_OF_PERICENTER":266.277,"MEAN_ANOMALY":93.8043,"EPHEMERIS_TYPE":0,"CLASSIFICATION_TYPE":"U","NORAD_CAT_ID":55791,"ELEMENT_SET_NO":999,"REV_AT_EPOCH":16703,"BSTAR":0.00010876269,"MEAN_MOTION_DOT":1.205e-5,"MEAN_MOTION_DDOT":0}]
